$$SOE
2460728.500000000, A.D. 2025-Feb-22 00:00:00.0000, -1.207882176082762E+08, -3.980667420896776E+08, 1.664249821579948E+07,
2460735.500000000, A.D. 2025-Mar-01 00:00:00.0000, -1.114655735656819E+08, -4.013976694604023E+08, 1.623537913426718E+07,
2460742.500000000, A.D. 2025-Mar-08 00:00:00.0000, -1.020682447905241E+08, -4.044597510750799E+08, 1.581738283269989E+07,
2460749.500000000, A.D. 2025-Mar-15 00:00:00.0000, -9.260278634730670E+07, -4.072519764344825E+08, 1.538882983780438E+07,
2460756.500000000, A.D. 2025-Mar-22 00:00:00.0000, -8.307573014476900E+07, -4.097734351115400E+08, 1.495004227263027E+07,
2460763.500000000, A.D. 2025-Mar-29 00:00:00.0000, -7.349358765958853E+07, -4.120233163116614E+08, 1.450134383143002E+07,
2460770.500000000, A.D. 2025-Apr-05 00:00:00.0000, -6.386285101698093E+07, -4.140009077771896E+08, 1.404305968065739E+07,
2460777.500000000, A.D. 2025-Apr-12 00:00:00.0000, -5.418999434779465E+07, -4.157055939291810E+08, 1.357551647068363E+07,
2460784.500000000, A.D. 2025-Apr-19 00:00:00.0000, -4.448147560327860E+07, -4.171368541246519E+08, 1.309904240277505E+07,
2460791.500000000, A.D. 2025-Apr-26 00:00:00.0000, -3.474373855032198E+07, -4.182942612291595E+08, 1.261396730922183E+07,
2460798.500000000, A.D. 2025-May-03 00:00:00.0000, -2.498321482838075E+07, -4.191774804823531E+08, 1.212062273715499E+07,
2460805.500000000, A.D. 2025-May-10 00:00:00.0000, -1.520632603470824E+07, -4.197862686446720E+08, 1.161934203355283E+07,
2460812.500000000, A.D. 2025-May-17 00:00:00.0000, -5.419485796708023E+06, -4.201204734630235E+08, 1.111046042422292E+07,
2460819.500000000, A.D. 2025-May-24 00:00:00.0000, 4.370898347063280E+06, -4.201800335063329E+08, 1.059431506589276E+07,
2460826.500000000, A.D. 2025-May-31 00:00:00.0000, 1.415842368056330E+07, -4.199649780566920E+08, 1.007124505800730E+07,
2460833.500000000, A.D. 2025-Jun-07 00:00:00.0000, 2.393669126405477E+07, -4.194754258497319E+08, 9.541591549004078E+06,
2460840.500000000, A.D. 2025-Jun-14 00:00:00.0000, 3.369930274949308E+07, -4.187115833311372E+08, 9.005698099072725E+06,
2460847.500000000, A.D. 2025-Jun-21 00:00:00.0000, 4.343985627955421E+07, -4.176737457016752E+08, 8.463910920156002E+06,
2460854.500000000, A.D. 2025-Jun-28 00:00:00.0000, 5.315194460285146E+07, -4.163622989884284E+08, 7.916578850397557E+06,
2460861.500000000, A.D. 2025-Jul-05 00:00:00.0000, 6.282915389200880E+07, -4.147777209876909E+08, 7.364053378430456E+06,
2460868.500000000, A.D. 2025-Jul-12 00:00:00.0000, 7.246506207746726E+07, -4.129205818850976E+08, 6.806688760878354E+06,
2460875.500000000, A.D. 2025-Jul-19 00:00:00.0000, 8.205323689177211E+07, -4.107915451280194E+08, 6.244842168560028E+06,
2460882.500000000, A.D. 2025-Jul-26 00:00:00.0000, 9.158723384027627E+07, -4.083913686076635E+08, 5.678873837390095E+06,
2460889.500000000, A.D. 2025-Aug-02 00:00:00.0000, 1.010605941699433E+08, -4.057209061309708E+08, 5.109147219587237E+06,
2460896.500000000, A.D. 2025-Aug-09 00:00:00.0000, 1.104668428663147E+08, -4.027811091993310E+08, 4.536029131648868E+06,
2460903.500000000, A.D. 2025-Aug-16 00:00:00.0000, 1.197994867627179E+08, -3.995730291607484E+08, 3.959889886730909E+06,
2460910.500000000, A.D. 2025-Aug-23 00:00:00.0000, 1.290520130615284E+08, -3.960978197236235E+08, 3.381103385964751E+06,
2460917.500000000, A.D. 2025-Aug-30 00:00:00.0000, 1.382178886032075E+08, -3.923567391233593E+08, 2.800047196996212E+06,
2460924.500000000, A.D. 2025-Sep-06 00:00:00.0000, 1.472905584714392E+08, -3.883511509461516E+08, 2.217102831585318E+06,
2460931.500000000, A.D. 2025-Sep-13 00:00:00.0000, 1.562634422704606E+08, -3.840825260956035E+08, 1.632656172391593E+06,
2460938.500000000, A.D. 2025-Sep-20 00:00:00.0000, 1.651299313566625E+08, -3.795524475488492E+08, 1.047097614006966E+06,
2460945.500000000, A.D. 2025-Sep-27 00:00:00.0000, 1.738833880936359E+08, -3.747626147951404E+08, 4.608220752322078E+05,
2460952.500000000, A.D. 2025-Oct-04 00:00:00.0000, 1.825171451248337E+08, -3.697148474233890E+08, -1.257708885252178E+05,
2460959.500000000, A.D. 2025-Oct-11 00:00:00.0000, 1.910245043014415E+08, -3.644110888070399E+08, -7.122769158219993E+05,
2460966.500000000, A.D. 2025-Oct-18 00:00:00.0000, 1.993987355612673E+08, -3.588534101659155E+08, -1.298286661601141E+06,
2460973.500000000, A.D. 2025-Oct-25 00:00:00.0000, 2.076330759111791E+08, -3.530440149993172E+08, -1.883385623931810E+06,
2460980.500000000, A.D. 2025-Nov-01 00:00:00.0000, 2.157207285662224E+08, -3.469852438799183E+08, -2.467153978154838E+06,
2460987.500000000, A.D. 2025-Nov-08 00:00:00.0000, 2.236548622947304E+08, -3.406795796441022E+08, -3.049166425106198E+06,
2460994.500000000, A.D. 2025-Nov-15 00:00:00.0000, 2.314286111341521E+08, -3.341296530411291E+08, -3.628992072811842E+06,
2461001.500000000, A.D. 2025-Nov-22 00:00:00.0000, 2.390350748996586E+08, -3.273382486259642E+08, -4.206194371572345E+06,
2461008.500000000, A.D. 2025-Nov-29 00:00:00.0000, 2.464673203529656E+08, -3.203083097673239E+08, -4.780330996541098E+06,
2461015.500000000, A.D. 2025-Dec-06 00:00:00.0000, 2.537183807744061E+08, -3.130429429130577E+08, -5.350953481109977E+06,
2461022.500000000, A.D. 2025-Dec-13 00:00:00.0000, 2.607812543928520E+08, -3.055454244861406E+08, -5.917606917698950E+06,
2461029.500000000, A.D. 2025-Dec-20 00:00:00.0000, 2.676489051910037E+08, -2.978192093895687E+08, -6.479829964188263E+06,
2461036.500000000, A.D. 2025-Dec-27 00:00:00.0000, 2.743142650401167E+08, -2.898679385316805E+08, -7.037154847078115E+06,
2461043.500000000, A.D. 2026-Jan-03 00:00:00.0000, 2.807702357344813E+08, -2.816954459904407E+08, -7.589107279211223E+06,
2461050.500000000, A.D. 2026-Jan-10 00:00:00.0000, 2.870096910664206E+08, -2.733057664974235E+08, -8.135206359089300E+06,
2461057.500000000, A.D. 2026-Jan-17 00:00:00.0000, 2.930254792068900E+08, -2.647031433337574E+08, -8.674964482193545E+06,
2461064.500000000, A.D. 2026-Jan-24 00:00:00.0000, 2.988104255029947E+08, -2.558920366145617E+08, -9.207887271331936E+06,
2461071.500000000, A.D. 2026-Jan-31 00:00:00.0000, 3.043573357493979E+08, -2.468771319656321E+08, -9.733473530710459E+06,
2461078.500000000, A.D. 2026-Feb-07 00:00:00.0000, 3.096590000294037E+08, -2.376633496411210E+08, -1.025121523629241E+07,
2461085.500000000, A.D. 2026-Feb-14 00:00:00.0000, 3.147081974171884E+08, -2.282558540832212E+08, -1.076059758939879E+07,
2461092.500000000, A.D. 2026-Feb-21 00:00:00.0000, 3.194977019755542E+08, -2.186600633304916E+08, -1.126109912443900E+07,
2461099.500000000, A.D. 2026-Feb-28 00:00:00.0000, 3.240202890182361E+08, -2.088816571082160E+08, -1.175219167952283E+07,
2461106.500000000, A.D. 2026-Mar-07 00:00:00.0000, 3.282687396318479E+08, -1.989265855388888E+08, -1.223334020339002E+07,
2461113.500000000, A.D. 2026-Mar-14 00:00:00.0000, 3.322358462839651E+08, -1.888010807876381E+08, -1.270400284719557E+07,
2461120.500000000, A.D. 2026-Mar-21 00:00:00.0000, 3.359144213530725E+08, -1.785116687197787E+08, -1.316363127128527E+07,
2461127.500000000, A.D. 2026-Mar-28 00:00:00.0000, 3.392973066273363E+08, -1.680651795123597E+08, -1.361167090218011E+07,
2461134.500000000, A.D. 2026-Apr-04 00:00:00.0000, 3.423773832267416E+08, -1.574687581501068E+08, -1.404756116714952E+07,
2461141.500000000, A.D. 2026-Apr-11 00:00:00.0000, 3.451475822826912E+08, -1.467298751236587E+08, -1.447073576500992E+07,
2461148.500000000, A.D. 2026-Apr-18 00:00:00.0000, 3.476008965967902E+08, -1.358563372877856E+08, -1.488062299264758E+07,
2461155.500000000, A.D. 2026-Apr-25 00:00:00.0000, 3.497303933891276E+08, -1.248562988087270E+08, -1.527664613486695E+07,
2461162.500000000, A.D. 2026-May-02 00:00:00.0000, 3.515292282324612E+08, -1.137382721666919E+08, -1.565822392770112E+07,
2461169.500000000, A.D. 2026-May-09 00:00:00.0000, 3.529906603618427E+08, -1.025111392079288E+08, -1.602477111728057E+07,
2461176.500000000, A.D. 2026-May-16 00:00:00.0000, 3.541080697999899E+08, -9.118416202523625E+07, -1.637569914314220E+07,
2461183.500000000, A.D. 2026-May-23 00:00:00.0000, 3.548749764132476E+08, -7.976699254873443E+07, -1.671041687268168E+07,
2461190.500000000, A.D. 2026-May-30 00:00:00.0000, 3.552850588865836E+08, -6.826968042314994E+07, -1.702833117570004E+07,
2461197.500000000, A.D. 2026-Jun-06 00:00:00.0000, 3.553321733615328E+08, -5.670268233367240E+07, -1.732884758381441E+07,
2461204.500000000, A.D. 2026-Jun-13 00:00:00.0000, 3.550103754530064E+08, -4.507687245436434E+07, -1.761137136119054E+07,
2461211.500000000, A.D. 2026-Jun-20 00:00:00.0000, 3.543139451895786E+08, -3.340355094986010E+07, -1.787530870778394E+07,
2461218.500000000, A.D. 2026-Jun-27 00:00:00.0000, 3.532374132200091E+08, -2.169445071465201E+07, -1.812006797336871E+07,
2461225.500000000, A.D. 2026-Jul-04 00:00:00.0000, 3.517755883174883E+08, -9.961742956163738E+06, -1.834506095190991E+07,
2461232.500000000, A.D. 2026-Jul-11 00:00:00.0000, 3.499235864549797E+08, 1.781958429480948E+06, -1.854970429635585E+07,
2461239.500000000, A.D. 2026-Jul-18 00:00:00.0000, 3.476768615497805E+08, 1.352359391225292E+07, -1.873342106586570E+07,
2461246.500000000, A.D. 2026-Jul-25 00:00:00.0000, 3.450312378910201E+08, 2.524965702810582E+07, -1.889564241255791E+07,
2461253.500000000, A.D. 2026-Aug-01 00:00:00.0000, 3.419829442690917E+08, 3.694619490108571E+07, -1.903580942053837E+07,
2461260.500000000, A.D. 2026-Aug-08 00:00:00.0000, 3.385286499709314E+08, 4.859881078832860E+07, -1.915337512354843E+07,
2461267.500000000, A.D. 2026-Aug-15 00:00:00.0000, 3.346655029760363E+08, 6.019266934480833E+07, -1.924780670509177E+07,
2461274.500000000, A.D. 2026-Aug-22 00:00:00.0000, 3.303911694804609E+08, 7.171250608997089E+07, -1.931858771202298E+07,
2461281.500000000, A.D. 2026-Aug-29 00:00:00.0000, 3.257038723275682E+08, 8.314263997525518E+07, -1.936522018307053E+07,
2461288.500000000, A.D. 2026-Sep-05 00:00:00.0000, 3.206024303158653E+08, 9.446698645213920E+07, -1.938722712106643E+07,
2461295.500000000, A.D. 2026-Sep-12 00:00:00.0000, 3.150863006267072E+08, 1.056690738038041E+08, -1.938415532635912E+07,
$$EOE